STARLINK-34324          
1 64207U 25117E   25219.56130949  .00010210  00000+0  26485-3 0  9992
2 64207  53.1580 315.4985 0001222  88.2119 271.9026 15.39625482 10692
STARLINK-34327          
1 64208U 25117F   25220.21974345  .00021080  00000+0  53542-3 0  9994
2 64208  53.1587 312.4977 0001236  80.2789 279.8355 15.39626010 10788
STARLINK-33944          
1 64209U 25117G   25220.22438201  .00032463  00000+0  81731-3 0  9990
2 64209  53.1585 312.5292 0001473  83.6690 276.4482 15.39649618 10793
STARLINK-34310          
1 64210U 25117H   25219.62157920  .00025481  00000+0  64465-3 0  9997
2 64210  53.1583 315.1635 0001030  87.3655 272.7468 15.39630104 11732
STARLINK-34258          
1 64211U 25117J   25219.74211968  .00040319  00000+0  10122-2 0  9991
2 64211  53.1591 314.4932 0001119  71.8273 288.2853 15.39632892 10731
STARLINK-34284          
1 64212U 25117K   25219.60300433  .00021514  00000+0  54628-3 0  9999
2 64212  53.1591 315.0446 0001052  94.6037 265.5088 15.39622384 10717
STARLINK-34332          
1 64213U 25117L   25219.58907432  .00054556  00000+0  13641-2 0  9990
2 64213  53.1592 314.9572 0000910  91.3598 268.7511 15.39621004 10708
STARLINK-34283          
1 64214U 25117M   25219.61727343  .00035958  00000+0  90447-3 0  9991
2 64214  53.1591 315.1348 0001115  61.4409 298.6708 15.39627178 10718
STARLINK-34349          
1 64215U 25117N   25219.57979478  .00044928  00000+0  11246-2 0  9991
2 64215  53.1598 314.8964 0001128  82.7974 277.3159 15.39673342 10711
STARLINK-34296          
1 64216U 25117P   25219.59371701  .00028307  00000+0  71455-3 0  9991
2 64216  53.1597 314.9862 0001381  76.6418 283.4740 15.39640199 10702
STARLINK-34320          
1 64217U 25117Q   25219.63120397  .00062764  00000+0  15659-2 0  9998
2 64217  53.1588 315.2220 0001207  76.9105 283.2035 15.39625983 11731
STARLINK-34300          
1 64218U 25117R   25219.63584700  .00018536  00000+0  47211-3 0  9999
2 64218  53.1587 315.2522 0001232  71.4403 288.6736 15.39628613 10712
STARLINK-34323          
1 64219U 25117S   25219.62191569  .00013621  00000+0  34984-3 0  9999
2 64219  53.1586 315.1636 0001137  88.7750 271.3385 15.39624768 11769
STARLINK-34328          
1 64220U 25117T   25219.60798395  .00036054  00000+0  90684-3 0  9993
2 64220  53.1594 315.0745 0001216  93.5363 266.5780 15.39627334 11736
STARLINK-34326          
1 64221U 25117U   25220.08335648  .00068385  00000+0  17064-2 0  9998
2 64221  53.1584 313.0393 0001155 103.1221 270.2762 15.39582768 10772
STARLINK-34318          
1 64222U 25117V   25220.08335648  .00062473  00000+0  15609-2 0  9994
2 64222  53.1593 312.7316 0001186  86.9475  80.9667 15.39583776 10777
