[{"OBJECT_NAME":"STARLINK-34324","OBJECT_ID":"2025-117E","EPOCH":"2025-08-07T13:28:17.139936","MEAN_MOTION":15.39625482,"ECCENTRICITY":0.00012226,"INCLINATION":53.158,"RA_OF_ASC_NODE":315.4985,"ARG_OF_PERICENTER":88.2119,"MEAN_ANOMALY":271.9026,"EPHEMERIS_TYPE":0,"CLASSIFICATION_TYPE":"U","NORAD_CAT_ID":64207,"ELEMENT_SET_NO":999,"REV_AT_EPOCH":1069,"BSTAR":0.0002648451,"MEAN_MOTION_DOT":0.0001021,"MEAN_MOTION_DDOT":0},{"OBJECT_NAME":"STARLINK-34327","OBJECT_ID":"2025-117F","EPOCH":"2025-08-08T05:16:25.834080","MEAN_MOTION":15.3962601,"ECCENTRICITY":0.0001236,"INCLINATION":53.1587,"RA_OF_ASC_NODE":312.4977,"ARG_OF_PERICENTER":80.2789,"MEAN_ANOMALY":279.8355,"EPHEMERIS_TYPE":0,"CLASSIFICATION_TYPE":"U","NORAD_CAT_ID":64208,"ELEMENT_SET_NO":999,"REV_AT_EPOCH":1078,"BSTAR":0.00053542,"MEAN_MOTION_DOT":0.0002108,"MEAN_MOTION_DDOT":0},{"OBJECT_NAME":"STARLINK-33944","OBJECT_ID":"2025-117G","EPOCH":"2025-08-08T05:23:06.605664","MEAN_MOTION":15.39649618,"ECCENTRICITY":0.0001473,"INCLINATION":53.1585,"RA_OF_ASC_NODE":312.5292,"ARG_OF_PERICENTER":83.669,"MEAN_ANOMALY":276.4482,"EPHEMERIS_TYPE":0,"CLASSIFICATION_TYPE":"U","NORAD_CAT_ID":64209,"ELEMENT_SET_NO":999,"REV_AT_EPOCH":1079,"BSTAR":0.00081731,"MEAN_MOTION_DOT":0.00032463,"MEAN_MOTION_DDOT":0},{"OBJECT_NAME":"STARLINK-34310","OBJECT_ID":"2025-117H","EPOCH":"2025-08-07T14:55:04.442880","MEAN_MOTION":15.39630104,"ECCENTRICITY":0.00010309,"INCLINATION":53.1583,"RA_OF_ASC_NODE":315.1635,"ARG_OF_PERICENTER":87.3655,"MEAN_ANOMALY":272.7468,"EPHEMERIS_TYPE":0,"CLASSIFICATION_TYPE":"U","NORAD_CAT_ID":64210,"ELEMENT_SET_NO":999,"REV_AT_EPOCH":1173,"BSTAR":0.00064465104,"MEAN_MOTION_DOT":0.00025481,"MEAN_MOTION_DDOT":0},{"OBJECT_NAME":"STARLINK-34258","OBJECT_ID":"2025-117J","EPOCH":"2025-08-07T17:48:39.140352","MEAN_MOTION":15.39632892,"ECCENTRICITY":0.0001119,"INCLINATION":53.1591,"RA_OF_ASC_NODE":314.4932,"ARG_OF_PERICENTER":71.8273,"MEAN_ANOMALY":288.2853,"EPHEMERIS_TYPE":0,"CLASSIFICATION_TYPE":"U","NORAD_CAT_ID":64211,"ELEMENT_SET_NO":999,"REV_AT_EPOCH":1073,"BSTAR":0.0010122,"MEAN_MOTION_DOT":0.00040319,"MEAN_MOTION_DDOT":0},{"OBJECT_NAME":"STARLINK-34284","OBJECT_ID":"2025-117K","EPOCH":"2025-08-07T14:28:19.574112","MEAN_MOTION":15.39622384,"ECCENTRICITY":0.0001052,"INCLINATION":53.1591,"RA_OF_ASC_NODE":315.0446,"ARG_OF_PERICENTER":94.6037,"MEAN_ANOMALY":265.5088,"EPHEMERIS_TYPE":0,"CLASSIFICATION_TYPE":"U","NORAD_CAT_ID":64212,"ELEMENT_SET_NO":999,"REV_AT_EPOCH":1071,"BSTAR":0.00054628,"MEAN_MOTION_DOT":0.00021514,"MEAN_MOTION_DDOT":0},{"OBJECT_NAME":"STARLINK-34332","OBJECT_ID":"2025-117L","EPOCH":"2025-08-07T14:08:16.021248","MEAN_MOTION":15.39621004,"ECCENTRICITY":9.1e-5,"INCLINATION":53.1592,"RA_OF_ASC_NODE":314.9572,"ARG_OF_PERICENTER":91.3598,"MEAN_ANOMALY":268.7511,"EPHEMERIS_TYPE":0,"CLASSIFICATION_TYPE":"U","NORAD_CAT_ID":64213,"ELEMENT_SET_NO":999,"REV_AT_EPOCH":1070,"BSTAR":0.0013641,"MEAN_MOTION_DOT":0.00054556,"MEAN_MOTION_DDOT":0},{"OBJECT_NAME":"STARLINK-34283","OBJECT_ID":"2025-117M","EPOCH":"2025-08-07T14:48:52.424352","MEAN_MOTION":15.39627178,"ECCENTRICITY":0.0001115,"INCLINATION":53.1591,"RA_OF_ASC_NODE":315.1348,"ARG_OF_PERICENTER":61.4409,"MEAN_ANOMALY":298.6708,"EPHEMERIS_TYPE":0,"CLASSIFICATION_TYPE":"U","NORAD_CAT_ID":64214,"ELEMENT_SET_NO":999,"REV_AT_EPOCH":1071,"BSTAR":0.00090447,"MEAN_MOTION_DOT":0.00035958,"MEAN_MOTION_DDOT":0},{"OBJECT_NAME":"STARLINK-34349","OBJECT_ID":"2025-117N","EPOCH":"2025-08-07T13:54:54.268992","MEAN_MOTION":15.39673342,"ECCENTRICITY":0.0001128,"INCLINATION":53.1598,"RA_OF_ASC_NODE":314.8964,"ARG_OF_PERICENTER":82.7974,"MEAN_ANOMALY":277.3159,"EPHEMERIS_TYPE":0,"CLASSIFICATION_TYPE":"U","NORAD_CAT_ID":64215,"ELEMENT_SET_NO":999,"REV_AT_EPOCH":1071,"BSTAR":0.0011246,"MEAN_MOTION_DOT":0.00044928,"MEAN_MOTION_DDOT":0},{"OBJECT_NAME":"STARLINK-34296","OBJECT_ID":"2025-117P","EPOCH":"2025-08-07T14:14:57.149664","MEAN_MOTION":15.39640199,"ECCENTRICITY":0.0001381,"INCLINATION":53.1597,"RA_OF_ASC_NODE":314.9862,"ARG_OF_PERICENTER":76.6418,"MEAN_ANOMALY":283.474,"EPHEMERIS_TYPE":0,"CLASSIFICATION_TYPE":"U","NORAD_CAT_ID":64216,"ELEMENT_SET_NO":999,"REV_AT_EPOCH":1070,"BSTAR":0.00071455,"MEAN_MOTION_DOT":0.00028307,"MEAN_MOTION_DDOT":0},{"OBJECT_NAME":"STARLINK-34320","OBJECT_ID":"2025-117Q","EPOCH":"2025-08-07T15:08:56.023008","MEAN_MOTION":15.39625983,"ECCENTRICITY":0.00012077,"INCLINATION":53.1588,"RA_OF_ASC_NODE":315.222,"ARG_OF_PERICENTER":76.9105,"MEAN_ANOMALY":283.2035,"EPHEMERIS_TYPE":0,"CLASSIFICATION_TYPE":"U","NORAD_CAT_ID":64217,"ELEMENT_SET_NO":999,"REV_AT_EPOCH":1173,"BSTAR":0.001565889,"MEAN_MOTION_DOT":0.00062764,"MEAN_MOTION_DDOT":0},{"OBJECT_NAME":"STARLINK-34300","OBJECT_ID":"2025-117R","EPOCH":"2025-08-07T15:15:37.180800","MEAN_MOTION":15.39628613,"ECCENTRICITY":0.0001232,"INCLINATION":53.1587,"RA_OF_ASC_NODE":315.2522,"ARG_OF_PERICENTER":71.4403,"MEAN_ANOMALY":288.6736,"EPHEMERIS_TYPE":0,"CLASSIFICATION_TYPE":"U","NORAD_CAT_ID":64218,"ELEMENT_SET_NO":999,"REV_AT_EPOCH":1071,"BSTAR":0.00047211,"MEAN_MOTION_DOT":0.00018536,"MEAN_MOTION_DDOT":0},{"OBJECT_NAME":"STARLINK-34323","OBJECT_ID":"2025-117S","EPOCH":"2025-08-07T14:55:33.515616","MEAN_MOTION":15.39624768,"ECCENTRICITY":0.00011374,"INCLINATION":53.1586,"RA_OF_ASC_NODE":315.1636,"ARG_OF_PERICENTER":88.775,"MEAN_ANOMALY":271.3385,"EPHEMERIS_TYPE":0,"CLASSIFICATION_TYPE":"U","NORAD_CAT_ID":64219,"ELEMENT_SET_NO":999,"REV_AT_EPOCH":1176,"BSTAR":0.00034984002,"MEAN_MOTION_DOT":0.00013621,"MEAN_MOTION_DDOT":0},{"OBJECT_NAME":"STARLINK-34328","OBJECT_ID":"2025-117T","EPOCH":"2025-08-07T14:35:29.813280","MEAN_MOTION":15.39627334,"ECCENTRICITY":0.00012161,"INCLINATION":53.1594,"RA_OF_ASC_NODE":315.0745,"ARG_OF_PERICENTER":93.5363,"MEAN_ANOMALY":266.578,"EPHEMERIS_TYPE":0,"CLASSIFICATION_TYPE":"U","NORAD_CAT_ID":64220,"ELEMENT_SET_NO":999,"REV_AT_EPOCH":1173,"BSTAR":0.00090684258,"MEAN_MOTION_DOT":0.00036054,"MEAN_MOTION_DDOT":0},{"OBJECT_NAME":"STARLINK-34326","OBJECT_ID":"2025-117U","EPOCH":"2025-08-08T02:00:01.999872","MEAN_MOTION":15.39582768,"ECCENTRICITY":0.0001155,"INCLINATION":53.1584,"RA_OF_ASC_NODE":313.0393,"ARG_OF_PERICENTER":103.1221,"MEAN_ANOMALY":270.2762,"EPHEMERIS_TYPE":0,"CLASSIFICATION_TYPE":"U","NORAD_CAT_ID":64221,"ELEMENT_SET_NO":999,"REV_AT_EPOCH":1077,"BSTAR":0.0017064,"MEAN_MOTION_DOT":0.00068385,"MEAN_MOTION_DDOT":0},{"OBJECT_NAME":"STARLINK-34318","OBJECT_ID":"2025-117V","EPOCH":"2025-08-08T02:00:01.999872","MEAN_MOTION":15.39583776,"ECCENTRICITY":0.0001186,"INCLINATION":53.1593,"RA_OF_ASC_NODE":312.7316,"ARG_OF_PERICENTER":86.9475,"MEAN_ANOMALY":80.9667,"EPHEMERIS_TYPE":0,"CLASSIFICATION_TYPE":"U","NORAD_CAT_ID":64222,"ELEMENT_SET_NO":999,"REV_AT_EPOCH":1077,"BSTAR":0.0015609,"MEAN_MOTION_DOT":0.00062473,"MEAN_MOTION_DDOT":0}]
